{
  "type": "FeatureCollection",
  "features": [
    {
      "type": "Feature",
      "properties": {
        "norad_id": 37836,
        "name": "EUTELSAT 16A",
        "group": "eutelsat",
        "lat": 0.000518026789366447,
        "lon": -171.64309561631296,
        "alt_km": 35781.37538990454,
        "timestamp": "2025-12-16T05:49:08.893277+00:00",
        "meta_object_name": "EUTELSAT 16A",
        "meta_object_id": "2011-057A",
        "meta_epoch": "2025-12-15T22:01:24.102912",
        "meta_mean_motion": 1.00273588,
        "meta_eccentricity": 0.00061165,
        "meta_inclination": 0.0623,
        "meta_ra_of_asc_node": 17.8343,
        "meta_arg_of_pericenter": 251.3873,
        "meta_mean_anomaly": 161.9574,
        "meta_ephemeris_type": 0,
        "meta_classification_type": "U",
        "meta_norad_cat_id": 37836,
        "meta_element_set_no": 999,
        "meta_rev_at_epoch": 549,
        "meta_bstar": 0,
        "meta_mean_motion_dot": 1.27e-06,
        "meta_mean_motion_ddot": 0,
        "tle_line1": "1 37836U 11057A   25349.91764008  .00000127  00000+0  00000+0 0  9997",
        "tle_line2": "2 37836   0.0623  17.8343 0006116 251.3873 161.9574  1.00273588  5494"
      },
      "geometry": {
        "type": "Point",
        "coordinates": [
          -171.64309561631296,
          0.000518026789366447
        ]
      }
    },
    {
      "type": "Feature",
      "properties": {
        "norad_id": 38992,
        "name": "EUTELSAT 21B",
        "group": "eutelsat",
        "lat": -0.012921484315673788,
        "lon": -166.013207502477,
        "alt_km": 35783.1786960777,
        "timestamp": "2025-12-16T05:49:08.893289+00:00",
        "meta_object_name": "EUTELSAT 21B",
        "meta_object_id": "2012-062B",
        "meta_epoch": "2025-12-15T22:03:01.448064",
        "meta_mean_motion": 1.00273905,
        "meta_eccentricity": 0.00034536,
        "meta_inclination": 0.0689,
        "meta_ra_of_asc_node": 13.1691,
        "meta_arg_of_pericenter": 262.0304,
        "meta_mean_anomaly": 161.9855,
        "meta_ephemeris_type": 0,
        "meta_classification_type": "U",
        "meta_norad_cat_id": 38992,
        "meta_element_set_no": 999,
        "meta_rev_at_epoch": 4799,
        "meta_bstar": 0,
        "meta_mean_motion_dot": 1.53e-06,
        "meta_mean_motion_ddot": 0,
        "tle_line1": "1 38992U 12062B   25349.91876676  .00000153  00000+0  00000+0 0  9992",
        "tle_line2": "2 38992   0.0689  13.1691 0003453 262.0304 161.9855  1.00273905 47990"
      },
      "geometry": {
        "type": "Point",
        "coordinates": [
          -166.013207502477,
          -0.012921484315673788
        ]
      }
    },
    {
      "type": "Feature",
      "properties": {
        "norad_id": 39020,
        "name": "EUTELSAT 70B",
        "group": "eutelsat",
        "lat": -0.08060670918090147,
        "lon": -117.09498308165082,
        "alt_km": 35768.20645989689,
        "timestamp": "2025-12-16T05:49:08.893301+00:00",
        "meta_object_name": "EUTELSAT 70B",
        "meta_object_id": "2012-069A",
        "meta_epoch": "2025-12-15T22:17:00.108672",
        "meta_mean_motion": 1.00271038,
        "meta_eccentricity": 0.0004302,
        "meta_inclination": 0.061,
        "meta_ra_of_asc_node": 353.3281,
        "meta_arg_of_pericenter": 256.4211,
        "meta_mean_anomaly": 239.8284,
        "meta_ephemeris_type": 0,
        "meta_classification_type": "U",
        "meta_norad_cat_id": 39020,
        "meta_element_set_no": 999,
        "meta_rev_at_epoch": 4767,
        "meta_bstar": 0,
        "meta_mean_motion_dot": -2.1e-07,
        "meta_mean_motion_ddot": 0,
        "tle_line1": "1 39020U 12069A   25349.92847348 -.00000021  00000+0  00000+0 0  9992",
        "tle_line2": "2 39020   0.0610 353.3281 0004302 256.4211 239.8284  1.00271038 47670"
      },
      "geometry": {
        "type": "Point",
        "coordinates": [
          -117.09498308165082,
          -0.08060670918090147
        ]
      }
    },
    {
      "type": "Feature",
      "properties": {
        "norad_id": 39122,
        "name": "EUTELSAT 117 WEST A",
        "group": "eutelsat",
        "lat": 0.024649180687013907,
        "lon": 55.62584768030006,
        "alt_km": 35795.72104826741,
        "timestamp": "2025-12-16T05:49:08.893314+00:00",
        "meta_object_name": "EUTELSAT 117 WEST A",
        "meta_object_id": "2013-012A",
        "meta_epoch": "2025-12-15T21:23:35.225088",
        "meta_mean_motion": 1.00272447,
        "meta_eccentricity": 0.00027768,
        "meta_inclination": 0.022,
        "meta_ra_of_asc_node": 34.6109,
        "meta_arg_of_pericenter": 234.2844,
        "meta_mean_anomaly": 19.9875,
        "meta_ephemeris_type": 0,
        "meta_classification_type": "U",
        "meta_norad_cat_id": 39122,
        "meta_element_set_no": 999,
        "meta_rev_at_epoch": 4659,
        "meta_bstar": 0,
        "meta_mean_motion_dot": 9e-08,
        "meta_mean_motion_ddot": 0,
        "tle_line1": "1 39122U 13012A   25349.89137992  .00000009  00000+0  00000+0 0  9992",
        "tle_line2": "2 39122   0.0220  34.6109 0002776 234.2844  19.9875  1.00272447 46595"
      },
      "geometry": {
        "type": "Point",
        "coordinates": [
          55.62584768030006,
          0.024649180687013907
        ]
      }
    },
    {
      "type": "Feature",
      "properties": {
        "norad_id": 39163,
        "name": "EUTELSAT 7B",
        "group": "eutelsat",
        "lat": -0.019013459883746437,
        "lon": 179.39752124577262,
        "alt_km": 35800.58439438097,
        "timestamp": "2025-12-16T05:49:08.893326+00:00",
        "meta_object_name": "EUTELSAT 7B",
        "meta_object_id": "2013-022A",
        "meta_epoch": "2025-12-15T21:58:54.342336",
        "meta_mean_motion": 1.00272765,
        "meta_eccentricity": 0.00045936,
        "meta_inclination": 0.0657,
        "meta_ra_of_asc_node": 349.8811,
        "meta_arg_of_pericenter": 329.7576,
        "meta_mean_anomaly": 101.9207,
        "meta_ephemeris_type": 0,
        "meta_classification_type": "U",
        "meta_norad_cat_id": 39163,
        "meta_element_set_no": 999,
        "meta_rev_at_epoch": 4611,
        "meta_bstar": 0,
        "meta_mean_motion_dot": 7.1e-07,
        "meta_mean_motion_ddot": 0,
        "tle_line1": "1 39163U 13022A   25349.91590674  .00000071  00000+0  00000+0 0  9990",
        "tle_line2": "2 39163   0.0657 349.8811 0004593 329.7576 101.9207  1.00272765 46118"
      },
      "geometry": {
        "type": "Point",
        "coordinates": [
          179.39752124577262,
          -0.019013459883746437
        ]
      }
    },
    {
      "type": "Feature",
      "properties": {
        "norad_id": 39612,
        "name": "EXPRESS-AT1",
        "group": "eutelsat",
        "lat": -0.04119042863370899,
        "lon": -131.57550402621047,
        "alt_km": 35785.28105148763,
        "timestamp": "2025-12-16T05:49:08.893338+00:00",
        "meta_object_name": "EXPRESS-AT1",
        "meta_object_id": "2014-010A",
        "meta_epoch": "2025-12-15T13:39:14.188608",
        "meta_mean_motion": 1.00274272,
        "meta_eccentricity": 5.181e-05,
        "meta_inclination": 0.0215,
        "meta_ra_of_asc_node": 345.6169,
        "meta_arg_of_pericenter": 154.3,
        "meta_mean_anomaly": 205.3652,
        "meta_ephemeris_type": 0,
        "meta_classification_type": "U",
        "meta_norad_cat_id": 39612,
        "meta_element_set_no": 999,
        "meta_rev_at_epoch": 4297,
        "meta_bstar": 0,
        "meta_mean_motion_dot": 0,
        "meta_mean_motion_ddot": 0,
        "tle_line1": "1 39612U 14010A   25349.56891422  .00000000  00000+0  00000+0 0  9995",
        "tle_line2": "2 39612   0.0215 345.6169 0000518 154.3000 205.3652  1.00274272 42972"
      },
      "geometry": {
        "type": "Point",
        "coordinates": [
          -131.57550402621047,
          -0.04119042863370899
        ]
      }
    },
    {
      "type": "Feature",
      "properties": {
        "norad_id": 39613,
        "name": "EXPRESS-AT2",
        "group": "eutelsat",
        "lat": -0.00010080455763332979,
        "lon": -47.73149246848887,
        "alt_km": 35780.78180305688,
        "timestamp": "2025-12-16T05:49:08.893350+00:00",
        "meta_object_name": "EXPRESS-AT2",
        "meta_object_id": "2014-010B",
        "meta_epoch": "2025-12-15T22:36:50.710176",
        "meta_mean_motion": 1.00273354,
        "meta_eccentricity": 0.00011822,
        "meta_inclination": 0.0133,
        "meta_ra_of_asc_node": 293.0927,
        "meta_arg_of_pericenter": 8.5966,
        "meta_mean_anomaly": 262.2151,
        "meta_ephemeris_type": 0,
        "meta_classification_type": "U",
        "meta_norad_cat_id": 39613,
        "meta_element_set_no": 999,
        "meta_rev_at_epoch": 4266,
        "meta_bstar": 0,
        "meta_mean_motion_dot": -2.58e-06,
        "meta_mean_motion_ddot": 0,
        "tle_line1": "1 39613U 14010B   25349.94225359 -.00000258  00000+0  00000+0 0  9994",
        "tle_line2": "2 39613   0.0133 293.0927 0001182   8.5966 262.2151  1.00273354 42661"
      },
      "geometry": {
        "type": "Point",
        "coordinates": [
          -47.73149246848887,
          -0.00010080455763332979
        ]
      }
    }
  ]
}